CCSDS_OMM_VERS = 2.0
CREATION_DATE  = 
ORIGINATOR     = 

OBJECT_NAME    = STARLINK-34910
OBJECT_ID      = 2025-247E
CENTER_NAME    = EARTH
REF_FRAME      = TEME
TIME_SYSTEM    = UTC
MEAN_ELEMENT_THEORY = SGP/SGP4

EPOCH          = 2025-11-14T20:00:01.000224
MEAN_MOTION    = 15.76885398
ECCENTRICITY   = .000127
INCLINATION    = 53.1545
RA_OF_ASC_NODE = 9.1504
ARG_OF_PERICENTER = 75.9132
MEAN_ANOMALY   = 115.3487

EPHEMERIS_TYPE = 0
CLASSIFICATION_TYPE = U
NORAD_CAT_ID   = 66269
ELEMENT_SET_NO = 999
REV_AT_EPOCH   = 340
BSTAR          = -.12339E-1
MEAN_MOTION_DOT = -.1787366E-1
MEAN_MOTION_DDOT = 0

CCSDS_OMM_VERS = 2.0
CREATION_DATE  = 
ORIGINATOR     = 

OBJECT_NAME    = STARLINK-35757
OBJECT_ID      = 2025-247F
CENTER_NAME    = EARTH
REF_FRAME      = TEME
TIME_SYSTEM    = UTC
MEAN_ELEMENT_THEORY = SGP/SGP4

EPOCH          = 2025-11-14T20:00:01.000224
MEAN_MOTION    = 15.68623857
ECCENTRICITY   = .0001343
INCLINATION    = 53.1594
RA_OF_ASC_NODE = 9.8796
ARG_OF_PERICENTER = 76.6135
MEAN_ANOMALY   = 122.8627

EPHEMERIS_TYPE = 0
CLASSIFICATION_TYPE = U
NORAD_CAT_ID   = 66270
ELEMENT_SET_NO = 999
REV_AT_EPOCH   = 345
BSTAR          = -.19759E-1
MEAN_MOTION_DOT = -.2015514E-1
MEAN_MOTION_DDOT = 0

CCSDS_OMM_VERS = 2.0
CREATION_DATE  = 
ORIGINATOR     = 

OBJECT_NAME    = STARLINK-35745
OBJECT_ID      = 2025-247G
CENTER_NAME    = EARTH
REF_FRAME      = TEME
TIME_SYSTEM    = UTC
MEAN_ELEMENT_THEORY = SGP/SGP4

EPOCH          = 2025-11-14T20:00:01.000224
MEAN_MOTION    = 15.68621205
ECCENTRICITY   = .0001237
INCLINATION    = 53.1593
RA_OF_ASC_NODE = 9.8756
ARG_OF_PERICENTER = 76.9915
MEAN_ANOMALY   = 124.4046

EPHEMERIS_TYPE = 0
CLASSIFICATION_TYPE = U
NORAD_CAT_ID   = 66271
ELEMENT_SET_NO = 999
REV_AT_EPOCH   = 345
BSTAR          = -.19737E-1
MEAN_MOTION_DOT = -.2013275E-1
MEAN_MOTION_DDOT = 0

CCSDS_OMM_VERS = 2.0
CREATION_DATE  = 
ORIGINATOR     = 

OBJECT_NAME    = STARLINK-35741
OBJECT_ID      = 2025-247H
CENTER_NAME    = EARTH
REF_FRAME      = TEME
TIME_SYSTEM    = UTC
MEAN_ELEMENT_THEORY = SGP/SGP4

EPOCH          = 2025-11-14T20:00:01.000224
MEAN_MOTION    = 15.68623974
ECCENTRICITY   = .0001379
INCLINATION    = 53.1592
RA_OF_ASC_NODE = 9.8715
ARG_OF_PERICENTER = 78.2334
MEAN_ANOMALY   = 125.0760

EPHEMERIS_TYPE = 0
CLASSIFICATION_TYPE = U
NORAD_CAT_ID   = 66272
ELEMENT_SET_NO = 999
REV_AT_EPOCH   = 345
BSTAR          = -.19748E-1
MEAN_MOTION_DOT = -.2014535E-1
MEAN_MOTION_DDOT = 0

CCSDS_OMM_VERS = 2.0
CREATION_DATE  = 
ORIGINATOR     = 

OBJECT_NAME    = STARLINK-35730
OBJECT_ID      = 2025-247J
CENTER_NAME    = EARTH
REF_FRAME      = TEME
TIME_SYSTEM    = UTC
MEAN_ELEMENT_THEORY = SGP/SGP4

EPOCH          = 2025-11-14T20:00:01.000224
MEAN_MOTION    = 15.68622956
ECCENTRICITY   = .0001389
INCLINATION    = 53.1592
RA_OF_ASC_NODE = 9.8673
ARG_OF_PERICENTER = 78.2861
MEAN_ANOMALY   = 126.9412

EPHEMERIS_TYPE = 0
CLASSIFICATION_TYPE = U
NORAD_CAT_ID   = 66273
ELEMENT_SET_NO = 999
REV_AT_EPOCH   = 345
BSTAR          = -.19749E-1
MEAN_MOTION_DOT = -.2014608E-1
MEAN_MOTION_DDOT = 0

CCSDS_OMM_VERS = 2.0
CREATION_DATE  = 
ORIGINATOR     = 

OBJECT_NAME    = STARLINK-35760
OBJECT_ID      = 2025-247K
CENTER_NAME    = EARTH
REF_FRAME      = TEME
TIME_SYSTEM    = UTC
MEAN_ELEMENT_THEORY = SGP/SGP4

EPOCH          = 2025-11-14T20:00:01.000224
MEAN_MOTION    = 15.68622726
ECCENTRICITY   = .0001399
INCLINATION    = 53.1592
RA_OF_ASC_NODE = 9.8632
ARG_OF_PERICENTER = 80.3213
MEAN_ANOMALY   = 126.8233

EPHEMERIS_TYPE = 0
CLASSIFICATION_TYPE = U
NORAD_CAT_ID   = 66274
ELEMENT_SET_NO = 999
REV_AT_EPOCH   = 313
BSTAR          = -.19748E-1
MEAN_MOTION_DOT = -.2014498E-1
MEAN_MOTION_DDOT = 0

CCSDS_OMM_VERS = 2.0
CREATION_DATE  = 
ORIGINATOR     = 

OBJECT_NAME    = STARLINK-35752
OBJECT_ID      = 2025-247L
CENTER_NAME    = EARTH
REF_FRAME      = TEME
TIME_SYSTEM    = UTC
MEAN_ELEMENT_THEORY = SGP/SGP4

EPOCH          = 2025-11-14T20:00:01.000224
MEAN_MOTION    = 15.68622593
ECCENTRICITY   = .0001321
INCLINATION    = 53.1592
RA_OF_ASC_NODE = 9.8592
ARG_OF_PERICENTER = 78.5368
MEAN_ANOMALY   = 130.5250

EPHEMERIS_TYPE = 0
CLASSIFICATION_TYPE = U
NORAD_CAT_ID   = 66275
ELEMENT_SET_NO = 999
REV_AT_EPOCH   = 313
BSTAR          = -.19749E-1
MEAN_MOTION_DOT = -.2014472E-1
MEAN_MOTION_DDOT = 0

CCSDS_OMM_VERS = 2.0
CREATION_DATE  = 
ORIGINATOR     = 

OBJECT_NAME    = STARLINK-35742
OBJECT_ID      = 2025-247M
CENTER_NAME    = EARTH
REF_FRAME      = TEME
TIME_SYSTEM    = UTC
MEAN_ELEMENT_THEORY = SGP/SGP4

EPOCH          = 2025-11-14T20:00:01.000224
MEAN_MOTION    = 15.68623149
ECCENTRICITY   = .0001333
INCLINATION    = 53.1592
RA_OF_ASC_NODE = 9.8551
ARG_OF_PERICENTER = 79.2140
MEAN_ANOMALY   = 131.7643

EPHEMERIS_TYPE = 0
CLASSIFICATION_TYPE = U
NORAD_CAT_ID   = 66276
ELEMENT_SET_NO = 999
REV_AT_EPOCH   = 345
BSTAR          = -.19754E-1
MEAN_MOTION_DOT = -.2015039E-1
MEAN_MOTION_DDOT = 0

CCSDS_OMM_VERS = 2.0
CREATION_DATE  = 
ORIGINATOR     = 

OBJECT_NAME    = STARLINK-35708
OBJECT_ID      = 2025-247N
CENTER_NAME    = EARTH
REF_FRAME      = TEME
TIME_SYSTEM    = UTC
MEAN_ELEMENT_THEORY = SGP/SGP4

EPOCH          = 2025-11-14T20:00:01.000224
MEAN_MOTION    = 15.68623210
ECCENTRICITY   = .0001334
INCLINATION    = 53.1592
RA_OF_ASC_NODE = 9.8510
ARG_OF_PERICENTER = 80.1844
MEAN_ANOMALY   = 132.7107

EPHEMERIS_TYPE = 0
CLASSIFICATION_TYPE = U
NORAD_CAT_ID   = 66277
ELEMENT_SET_NO = 999
REV_AT_EPOCH   = 345
BSTAR          = -.19756E-1
MEAN_MOTION_DOT = -.2015178E-1
MEAN_MOTION_DDOT = 0

CCSDS_OMM_VERS = 2.0
CREATION_DATE  = 
ORIGINATOR     = 

OBJECT_NAME    = STARLINK-35713
OBJECT_ID      = 2025-247P
CENTER_NAME    = EARTH
REF_FRAME      = TEME
TIME_SYSTEM    = UTC
MEAN_ELEMENT_THEORY = SGP/SGP4

EPOCH          = 2025-11-14T20:00:01.000224
MEAN_MOTION    = 15.68605215
ECCENTRICITY   = .0001488
INCLINATION    = 53.1591
RA_OF_ASC_NODE = 9.8432
ARG_OF_PERICENTER = 79.8499
MEAN_ANOMALY   = 136.8913

EPHEMERIS_TYPE = 0
CLASSIFICATION_TYPE = U
NORAD_CAT_ID   = 66278
ELEMENT_SET_NO = 999
REV_AT_EPOCH   = 345
BSTAR          = -.19551E-1
MEAN_MOTION_DOT = -.1995629E-1
MEAN_MOTION_DDOT = 0

CCSDS_OMM_VERS = 2.0
CREATION_DATE  = 
ORIGINATOR     = 

OBJECT_NAME    = STARLINK-35724
OBJECT_ID      = 2025-247Q
CENTER_NAME    = EARTH
REF_FRAME      = TEME
TIME_SYSTEM    = UTC
MEAN_ELEMENT_THEORY = SGP/SGP4

EPOCH          = 2025-11-14T20:00:01.000224
MEAN_MOTION    = 15.68624452
ECCENTRICITY   = .0001318
INCLINATION    = 53.1590
RA_OF_ASC_NODE = 9.8387
ARG_OF_PERICENTER = 81.3158
MEAN_ANOMALY   = 137.3292

EPHEMERIS_TYPE = 0
CLASSIFICATION_TYPE = U
NORAD_CAT_ID   = 66279
ELEMENT_SET_NO = 999
REV_AT_EPOCH   = 308
BSTAR          = -.19771E-1
MEAN_MOTION_DOT = -.2016624E-1
MEAN_MOTION_DDOT = 0

CCSDS_OMM_VERS = 2.0
CREATION_DATE  = 
ORIGINATOR     = 

OBJECT_NAME    = STARLINK-35726
OBJECT_ID      = 2025-247R
CENTER_NAME    = EARTH
REF_FRAME      = TEME
TIME_SYSTEM    = UTC
MEAN_ELEMENT_THEORY = SGP/SGP4

EPOCH          = 2025-11-14T20:00:01.000224
MEAN_MOTION    = 15.68620988
ECCENTRICITY   = .000134
INCLINATION    = 53.1591
RA_OF_ASC_NODE = 9.8474
ARG_OF_PERICENTER = 81.5821
MEAN_ANOMALY   = 133.2316

EPHEMERIS_TYPE = 0
CLASSIFICATION_TYPE = U
NORAD_CAT_ID   = 66280
ELEMENT_SET_NO = 999
REV_AT_EPOCH   = 313
BSTAR          = -.19722E-1
MEAN_MOTION_DOT = -.2012014E-1
MEAN_MOTION_DDOT = 0

CCSDS_OMM_VERS = 2.0
CREATION_DATE  = 
ORIGINATOR     = 

OBJECT_NAME    = STARLINK-35727
OBJECT_ID      = 2025-247S
CENTER_NAME    = EARTH
REF_FRAME      = TEME
TIME_SYSTEM    = UTC
MEAN_ELEMENT_THEORY = SGP/SGP4

EPOCH          = 2025-11-14T20:00:01.000224
MEAN_MOTION    = 15.68587395
ECCENTRICITY   = .0001405
INCLINATION    = 53.1591
RA_OF_ASC_NODE = 9.8345
ARG_OF_PERICENTER = 79.8466
MEAN_ANOMALY   = 140.7426

EPHEMERIS_TYPE = 0
CLASSIFICATION_TYPE = U
NORAD_CAT_ID   = 66281
ELEMENT_SET_NO = 999
REV_AT_EPOCH   = 313
BSTAR          = -.19377E-1
MEAN_MOTION_DOT = -.1978553E-1
MEAN_MOTION_DDOT = 0

CCSDS_OMM_VERS = 2.0
CREATION_DATE  = 
ORIGINATOR     = 

OBJECT_NAME    = STARLINK-35776
OBJECT_ID      = 2025-247T
CENTER_NAME    = EARTH
REF_FRAME      = TEME
TIME_SYSTEM    = UTC
MEAN_ELEMENT_THEORY = SGP/SGP4

EPOCH          = 2025-11-14T20:00:01.000224
MEAN_MOTION    = 15.68622356
ECCENTRICITY   = .0001303
INCLINATION    = 53.1590
RA_OF_ASC_NODE = 9.8305
ARG_OF_PERICENTER = 82.2756
MEAN_ANOMALY   = 140.2049

EPHEMERIS_TYPE = 0
CLASSIFICATION_TYPE = U
NORAD_CAT_ID   = 66282
ELEMENT_SET_NO = 999
REV_AT_EPOCH   = 313
BSTAR          = -.19749E-1
MEAN_MOTION_DOT = -.2014487E-1
MEAN_MOTION_DDOT = 0

CCSDS_OMM_VERS = 2.0
CREATION_DATE  = 
ORIGINATOR     = 

OBJECT_NAME    = STARLINK-35774
OBJECT_ID      = 2025-247U
CENTER_NAME    = EARTH
REF_FRAME      = TEME
TIME_SYSTEM    = UTC
MEAN_ELEMENT_THEORY = SGP/SGP4

EPOCH          = 2025-11-14T20:00:01.000224
MEAN_MOTION    = 15.68621319
ECCENTRICITY   = .000135
INCLINATION    = 53.1589
RA_OF_ASC_NODE = 9.8269
ARG_OF_PERICENTER = 81.9356
MEAN_ANOMALY   = 142.4621

EPHEMERIS_TYPE = 0
CLASSIFICATION_TYPE = U
NORAD_CAT_ID   = 66283
ELEMENT_SET_NO = 999
REV_AT_EPOCH   = 313
BSTAR          = -.19737E-1
MEAN_MOTION_DOT = -.2013371E-1
MEAN_MOTION_DDOT = 0

